IRIDIUM 159             
1 43578U 18061K   23256.12091124  .00000407  00000+0  13831-3 0  9990
2 43578  86.3943 118.0493 0002122  87.8778 272.2661 14.34219318268895
IRIDIUM 180             
1 43922U 19002A   23255.98086226  .00000151  00000+0  47014-4 0  9996
2 43922  86.3944  54.9360 0001945  95.3722 264.7696 14.34219836244528
IRIDIUM 176             
1 43923U 19002B   23255.85804179  .00000649  00000+0  99039-4 0  9994
2 43923  86.6075  55.0222 0002262  90.3826 269.7650 14.72259083250891
IRIDIUM 168             
1 43924U 19002C   23255.97453485  .00000150  00000+0  46485-4 0  9992
2 43924  86.3945  54.9875 0002040  92.9525 267.1904 14.34217655244462
IRIDIUM 173             
1 43925U 19002D   23255.96185363  .00000153  00000+0  47463-4 0  9999
2 43925  86.3942  54.9229 0002111  94.0350 266.1087 14.34218936244454
IRIDIUM 169             
1 43926U 19002E   23255.62397012  .00000150  00000+0  42565-4 0  9994
2 43926  86.4168  86.7018 0005346  75.0686 285.1104 14.38620143245227
IRIDIUM 172             
1 43927U 19002F   23255.88571817  .00000149  00000+0  46211-4 0  9990
2 43927  86.3944  54.9598 0002018  94.1744 265.9683 14.34216541244449
IRIDIUM 175             
1 43928U 19002G   23255.91976668  .00001803  00000+0  28186-3 0  9996
2 43928  86.1511  43.8656 0002218  91.5193 268.6278 14.72271854250897
